     2              NAVIGATION DATA                         RINEX VERSION / TYPE
CCRINEXN V1.6.0 UX  CDDIS               21-SEP-16 15:33     PGM / RUN BY / DATE 
IGS BROADCAST EPHEMERIS FILE                                COMMENT             
    0.8382D-08  0.1490D-07 -0.5960D-07 -0.5960D-07          ION ALPHA           
    0.8397D+05  0.1638D+05 -0.1311D+06 -0.6554D+05          ION BETA            
    0.000000000000D+00 0.000000000000D+00   405504     1915 DELTA-UTC: A0,A1,T,W
    17                                                      LEAP SECONDS        
                                                            END OF HEADER       
27 16  9 20  2  0  0.0 0.141440890729D-03 0.477484718431D-11 0.000000000000D+00
    0.630000000000D+02 0.125000000000D+02 0.392694928749D-08 0.299211698879D+01
    0.646337866783D-06 0.382291106507D-02 0.111199915409D-04 0.515365671921D+04
    0.180000000000D+06 0.745058059692D-08 0.936540419582D+00-0.391155481338D-07
    0.972421339629D+00 0.172187500000D+03 0.346633792655D+00-0.776925219197D-08
    0.389659088008D-09 0.100000000000D+01 0.191500000000D+04 0.000000000000D+00
    0.200000000000D+01 0.000000000000D+00 0.186264514923D-08 0.630000000000D+02
    0.172800000000D+06 0.400000000000D+01 0.000000000000D+00 0.000000000000D+00
29 16  9 20  2  0  0.0 0.650385394692D-03-0.113686837722D-11 0.000000000000D+00
    0.220000000000D+02 0.656250000000D+01 0.384230290448D-08-0.131882104198D+01
    0.463798642158D-06 0.558828935027D-03 0.119507312775D-04 0.515375279617D+04
    0.180000000000D+06-0.149011611938D-07 0.996955139983D+00-0.353902578354D-07
    0.978455500736D+00 0.159875000000D+03 0.129350982502D+00-0.770817821942D-08
    0.421446126351D-09 0.100000000000D+01 0.191500000000D+04 0.000000000000D+00
    0.200000000000D+01 0.000000000000D+00-0.102445483208D-07 0.220000000000D+02
    0.172818000000D+06 0.400000000000D+01 0.000000000000D+00 0.000000000000D+00
30 16  9 20  2  0  0.0 0.151033978909D-03 0.159161572810D-11 0.000000000000D+00
    0.970000000000D+02 0.220625000000D+02 0.524414701120D-08 0.230812290556D+00
    0.992789864540D-06 0.241387973074D-02 0.197999179363D-05 0.515376644516D+04
    0.180000000000D+06 0.391155481338D-07-0.108732859254D+01-0.502914190292D-07
    0.950589951270D+00 0.333437500000D+03-0.313578858755D+01-0.875786480022D-08
   -0.707172313708D-10 0.100000000000D+01 0.191500000000D+04 0.000000000000D+00
    0.200000000000D+01 0.000000000000D+00 0.372529029846D-08 0.970000000000D+02
    0.172800000000D+06 0.400000000000D+01 0.000000000000D+00 0.000000000000D+00
31 16  9 20  2  0  0.0 0.247039366514D-03-0.204636307899D-11 0.000000000000D+00
    0.760000000000D+02 0.334375000000D+02 0.480698594455D-08 0.314473902757D-01
    0.164099037647D-05 0.831049482804D-02 0.308081507683D-05 0.515355016518D+04
    0.180000000000D+06 0.540167093277D-07-0.111997319693D+01-0.428408384323D-07
    0.969596209288D+00 0.325031250000D+03-0.381567767292D+00-0.856071373095D-08
   -0.714315468392D-11 0.100000000000D+01 0.191500000000D+04 0.000000000000D+00
    0.200000000000D+01 0.000000000000D+00-0.135041773319D-07 0.760000000000D+02
    0.179040000000D+06 0.400000000000D+01 0.000000000000D+00 0.000000000000D+00
32 16  9 20  2  0  0.0-0.121969729662D-03-0.145519152284D-10 0.000000000000D+00
    0.650000000000D+02 0.763125000000D+02 0.452054544172D-08-0.286153478079D+01
    0.404752790928D-05 0.654724892229D-03 0.112205743790D-04 0.515365109062D+04
    0.180000000000D+06 0.745058059692D-08-0.220677347416D+01-0.447034835815D-07
    0.959118836818D+00 0.161968750000D+03-0.235153444072D+01-0.801640534403D-08
    0.177507393895D-09 0.100000000000D+01 0.191500000000D+04 0.000000000000D+00
    0.200000000000D+01 0.000000000000D+00 0.931322574616D-09 0.650000000000D+02
    0.172800000000D+06 0.400000000000D+01 0.000000000000D+00 0.000000000000D+00
11 16  9 20  3 59 44.0-0.664676073939D-03-0.102318153950D-11 0.000000000000D+00
    0.600000000000D+01 0.362187500000D+02 0.619847247697D-08 0.133941633040D+01
    0.157766044140D-05 0.168289430439D-01 0.625103712082D-05 0.515367546844D+04
    0.187184000000D+06-0.150874257088D-06 0.160932111724D+01-0.437721610069D-06
    0.897591631586D+00 0.226437500000D+03 0.157504810948D+01-0.911859411176D-08
    0.448232956416D-09 0.100000000000D+01 0.191500000000D+04 0.000000000000D+00
    0.200000000000D+01 0.000000000000D+00-0.121071934700D-07 0.600000000000D+01
    0.184440000000D+06 0.400000000000D+01 0.000000000000D+00 0.000000000000D+00
18 16  9 20  3 59 44.0 0.559394247830D-03 0.375166564481D-11 0.000000000000D+00
    0.800000000000D+01-0.489375000000D+02 0.557951812361D-08-0.688749086330D+00
   -0.237114727497D-05 0.172607961576D-01 0.927597284317D-05 0.515371472549D+04
    0.187184000000D+06-0.119209289551D-06 0.299930350071D+01 0.242143869400D-06
    0.925576765828D+00 0.187781250000D+03-0.186003780974D+01-0.884751139150D-08
   -0.372872674501D-09 0.100000000000D+01 0.191500000000D+04 0.000000000000D+00
    0.200000000000D+01 0.000000000000D+00-0.111758708954D-07 0.800000000000D+01
    0.184590000000D+06 0.400000000000D+01 0.000000000000D+00 0.000000000000D+00
21 16  9 20  3 59 44.0-0.532118603587D-03-0.454747350886D-12 0.000000000000D+00
    0.500000000000D+01 0.130312500000D+02 0.553201614496D-08 0.290845183487D+00
    0.786036252975D-06 0.234164756257D-01 0.534206628799D-05 0.515353740883D+04
    0.187184000000D+06-0.435858964920D-06 0.195773911112D+01-0.260770320892D-07
    0.937091304791D+00 0.269250000000D+03-0.175861415720D+01-0.905430571961D-08
    0.176793078427D-09 0.100000000000D+01 0.191500000000D+04 0.000000000000D+00
    0.200000000000D+01 0.000000000000D+00-0.977888703346D-08 0.500000000000D+01
    0.184956000000D+06 0.400000000000D+01 0.000000000000D+00 0.000000000000D+00
 1 16  9 20  4  0  0.0 0.345846638084D-04 0.136424205266D-11 0.000000000000D+00
    0.610000000000D+02 0.119062500000D+02 0.475305512668D-08 0.191291622720D+01
    0.571832060814D-06 0.589768588543D-02 0.505335628986D-05 0.515369933701D+04
    0.187200000000D+06-0.145286321640D-06 0.199462448974D+01 0.484287738800D-07
    0.965026844647D+00 0.283843750000D+03 0.551009807633D+00-0.835463371831D-08
    0.216794744657D-09 0.100000000000D+01 0.191500000000D+04 0.000000000000D+00
    0.200000000000D+01 0.000000000000D+00 0.512227416039D-08 0.610000000000D+02
    0.180000000000D+06 0.400000000000D+01 0.000000000000D+00 0.000000000000D+00
 2 16  9 20  4  0  0.0 0.550599303096D-03-0.488853402203D-11 0.000000000000D+00
    0.820000000000D+02 0.144062500000D+02 0.513985695282D-08 0.236613325134D+01
    0.605359673500D-06 0.159438825212D-01 0.455044209957D-05 0.515363028145D+04
    0.187200000000D+06 0.104308128357D-06 0.194659404089D+01-0.290572643280D-06
    0.943827322791D+00 0.280000000000D+03-0.208396341929D+01-0.833534720067D-08
    0.310370071016D-09 0.100000000000D+01 0.191500000000D+04 0.000000000000D+00
    0.290000000000D+01 0.000000000000D+00-0.204890966415D-07 0.820000000000D+02
    0.180000000000D+06 0.400000000000D+01 0.000000000000D+00 0.000000000000D+00
 3 16  9 20  4  0  0.0-0.881059095263D-04-0.216004991671D-11 0.000000000000D+00
    0.520000000000D+02-0.510312500000D+02 0.461662087222D-08 0.972251733296D+00
   -0.285916030407D-05 0.176635803655D-03 0.948272645474D-05 0.515361982727D+04
    0.187200000000D+06-0.167638063431D-07 0.303633438409D+01-0.111758708954D-07
    0.959874697331D+00 0.198656250000D+03 0.357536498316D+00-0.810355183118D-08
   -0.383230248792D-09 0.100000000000D+01 0.191500000000D+04 0.000000000000D+00
    0.200000000000D+01 0.000000000000D+00 0.139698386192D-08 0.520000000000D+02
    0.182760000000D+06 0.400000000000D+01 0.000000000000D+00 0.000000000000D+00
 4 16  9 20  4  0  0.0 0.109151005745D-05 0.306954461848D-11 0.000000000000D+00
    0.128000000000D+03 0.965625000000D+02 0.442482717133D-08-0.800303785968D+00
    0.483728945255D-05 0.840644165873D-02 0.106021761894D-04 0.515360864830D+04
    0.187200000000D+06-0.134110450745D-06-0.208762373103D+01-0.242143869400D-07
    0.966269119570D+00 0.182937500000D+03-0.102501238438D+01-0.809676592439D-08
    0.384658888075D-09 0.100000000000D+01 0.191500000000D+04 0.000000000000D+00
    0.570000000000D+01 0.100000000000D+01-0.372529029846D-08 0.128000000000D+03
    0.185340000000D+06 0.000000000000D+00 0.000000000000D+00 0.000000000000D+00
 5 16  9 20  4  0  0.0-0.899019651115D-04 0.261479726760D-11 0.000000000000D+00
    0.740000000000D+02-0.476562500000D+02 0.490091842864D-08-0.144106583116D+01
   -0.263936817646D-05 0.475593772717D-02 0.914558768272D-05 0.515359872246D+04
    0.187200000000D+06 0.633299350738D-07 0.302288986558D+01-0.186264514923D-07
    0.946901102392D+00 0.189093750000D+03 0.510689776782D+00-0.821248494011D-08
   -0.368586781690D-09 0.100000000000D+01 0.191500000000D+04 0.000000000000D+00
    0.200000000000D+01 0.000000000000D+00-0.107102096081D-07 0.740000000000D+02
    0.180000000000D+06 0.400000000000D+01 0.000000000000D+00 0.000000000000D+00
 6 16  9 20  4  0  0.0 0.248728785664D-03 0.511590769747D-11 0.000000000000D+00
    0.430000000000D+02 0.114375000000D+02 0.473198282036D-08 0.234760471068D+01
    0.696629285812D-06 0.206443597563D-03 0.468455255032D-05 0.515376019096D+04
    0.187200000000D+06 0.372529029846D-07 0.198621551520D+01 0.409781932831D-07
    0.964834544066D+00 0.290187500000D+03-0.151638865524D+01-0.829748848084D-08
    0.258225041824D-09 0.100000000000D+01 0.191500000000D+04 0.000000000000D+00
    0.200000000000D+01 0.000000000000D+00 0.419095158577D-08 0.430000000000D+02
    0.180000000000D+06 0.400000000000D+01 0.000000000000D+00 0.000000000000D+00
